[{"OBJECT_NAME":"TIANMU-1 11","OBJECT_ID":"2023-205A","EPOCH":"2026-03-10T00:04:04.804896","MEAN_MOTION":15.25886825,"ECCENTRICITY":0.00089558,"INCLINATION":97.3549,"RA_OF_ASC_NODE":92.1484,"ARG_OF_PERICENTER":7.2987,"MEAN_ANOMALY":352.838,"EPHEMERIS_TYPE":0,"CLASSIFICATION_TYPE":"U","NORAD_CAT_ID":58645,"ELEMENT_SET_NO":999,"REV_AT_EPOCH":12239,"BSTAR":0.00031315232,"MEAN_MOTION_DOT":7.963e-5,"MEAN_MOTION_DDOT":0},{"OBJECT_NAME":"STARLINK-36498","OBJECT_ID":"2026-002P","EPOCH":"2026-03-09T09:39:26.266176","MEAN_MOTION":15.27607877,"ECCENTRICITY":0.00010349,"INCLINATION":42.9959,"RA_OF_ASC_NODE":326.9974,"ARG_OF_PERICENTER":22.2652,"MEAN_ANOMALY":337.8245,"EPHEMERIS_TYPE":0,"CLASSIFICATION_TYPE":"U","NORAD_CAT_ID":67318,"ELEMENT_SET_NO":999,"REV_AT_EPOCH":1109,"BSTAR":0.0010208157,"MEAN_MOTION_DOT":0.00027959,"MEAN_MOTION_DDOT":0}]
